{
    "satellites": [
        {
            "name": "starlink350",
            "title": "Starlink-350 (G17-33) (new)",
            "tle": [
                "1 67715C 26025Y   26044.76298611 -.00879520  00000+0 -10371-2 0   444",
                "2 67715  97.2792 154.8926 0001624  57.5495  27.2175 16.09527014    17"
            ],
            "stdMag": 5,
            "noradId": "67715",
            "tleUrl": "http://celestrak.org/NORAD/elements/supplemental/sup-gp.php?FILE=starlink&FORMAT=tle",
            "launchDate": "2026-02-07T20:58:09.000Z",
            "active": true,
            "batch": [
                {
                    "noradId": "67715",
                    "tle": [
                        "1 67715C 26025Y   26044.76298611 -.00879520  00000+0 -10371-2 0   444",
                        "2 67715  97.2792 154.8926 0001624  57.5495  27.2175 16.09527014    17"
                    ]
                },
                {
                    "noradId": "67716",
                    "tle": [
                        "1 67716C 26025Z   26044.71645833 -.00881420  00000+0 -10459-2 0   441",
                        "2 67716  97.2792 154.8404 0001691  61.3258 112.0813 16.09429649    10"
                    ]
                },
                {
                    "noradId": "67714",
                    "tle": [
                        "1 67714C 26025X   26044.71854167 -.00896210  00000+0 -10887-2 0   449",
                        "2 67714  97.2793 154.8407 0001661  63.0258 118.4833 16.09074879    11"
                    ]
                },
                {
                    "noradId": "67713",
                    "tle": [
                        "1 67713C 26025W   26044.76506944 -.00899710  00000+0 -10877-2 0   447",
                        "2 67713  97.2793 154.8929 0001702  58.2638  34.3914 16.09154308    15"
                    ]
                },
                {
                    "noradId": "67717",
                    "tle": [
                        "1 67717C 26025AA  26044.76368056 -.00885670  00000+0 -10919-2 0   448",
                        "2 67717  97.2795 154.8897 0001650  42.4296  38.2371 16.08829702    18"
                    ]
                },
                {
                    "noradId": "67711",
                    "tle": [
                        "1 67711C 26025U   26044.76298611 -.00952560  00000+0 -12254-2 0   448",
                        "2 67711  97.2798 154.8860 0001708  51.1311  18.7659 16.08221008    11"
                    ]
                },
                {
                    "noradId": "67710",
                    "tle": [
                        "1 67710C 26025T   26044.70604167 -.00954920  00000+0 -12348-2 0   444",
                        "2 67710  97.2799 154.8223 0001731  53.0732  45.3015 16.08140192    14"
                    ]
                },
                {
                    "noradId": "67712",
                    "tle": [
                        "1 67712C 26025V   26044.72131944 -.00918720  00000+0 -11433-2 0   448",
                        "2 67712  97.2793 154.8420 0001649  60.8244 132.6996 16.08716094    19"
                    ]
                },
                {
                    "noradId": "67709",
                    "tle": [
                        "1 67709C 26025S   26044.76784722 -.00939440  00000+0 -11926-2 0   445",
                        "2 67709  97.2797 154.8924 0001741  55.3972  44.9700 16.08419219    15"
                    ]
                },
                {
                    "noradId": "67708",
                    "tle": [
                        "1 67708C 26025R   26044.76854167 -.00975350  00000+0 -12915-2 0   444",
                        "2 67708  97.2799 154.8898 0001665  56.6234  40.6242 16.07780063    17"
                    ]
                },
                {
                    "noradId": "67706",
                    "tle": [
                        "1 67706C 26025P   26044.71576389 -.00976900  00000+0 -12992-2 0   441",
                        "2 67706  97.2802 154.8313 0001638  59.0843  90.9706 16.07710883    11"
                    ]
                },
                {
                    "noradId": "67707",
                    "tle": [
                        "1 67707C 26025Q   26044.75187500 -.01004400  00000+0 -13727-2 0   444",
                        "2 67707  97.2803 154.8689 0001599  49.8177 305.0155 16.07296799    15"
                    ]
                },
                {
                    "noradId": "67705",
                    "tle": [
                        "1 67705C 26025N   26044.76993056 -.00996240  00000+0 -13508-2 0   442",
                        "2 67705  97.2804 154.8899 0001754  53.1266  47.9858 16.07417923    13"
                    ]
                },
                {
                    "noradId": "67704",
                    "tle": [
                        "1 67704C 26025M   26044.71368056 -.01006800  00000+0 -13888-2 0   448",
                        "2 67704  97.2807 154.8262 0001665  62.9511  68.6609 16.07150029    16"
                    ]
                },
                {
                    "noradId": "67703",
                    "tle": [
                        "1 67703C 26025L   26044.71576389 -.01018100  00000+0 -14216-2 0   449",
                        "2 67703  97.2807 154.8277 0001784  59.2111  82.3395 16.06961534    13"
                    ]
                },
                {
                    "noradId": "67702",
                    "tle": [
                        "1 67702C 26025K   26044.72062500 -.01023500  00000+0 -14425-2 0   446",
                        "2 67702  97.2807 154.8322 0001670  62.9191 105.0177 16.06815647    10"
                    ]
                },
                {
                    "noradId": "67701",
                    "tle": [
                        "1 67701C 26025J   26044.73868056 -.01037600  00000+0 -14793-2 0   440",
                        "2 67701  97.2808 154.8513 0001545  57.8179 212.7375 16.06643373    13"
                    ]
                },
                {
                    "noradId": "67700",
                    "tle": [
                        "1 67700C 26025H   26044.75604167 -.01051400  00000+0 -15189-2 0   446",
                        "2 67700  97.2811 154.8698 0001543  51.6982 317.1460 16.06439387    15"
                    ]
                },
                {
                    "noradId": "67699",
                    "tle": [
                        "1 67699C 26025G   26044.71923611 -.01052400  00000+0 -15302-2 0   445",
                        "2 67699  97.2811 154.8284 0001605  67.3833  86.7170 16.06334523    14"
                    ]
                },
                {
                    "noradId": "67698",
                    "tle": [
                        "1 67698C 26025F   26044.71020833 -.01061200  00000+0 -15590-2 0   445",
                        "2 67698  97.2813 154.8176 0001672  58.9912  40.8520 16.06172196    19"
                    ]
                },
                {
                    "noradId": "67697",
                    "tle": [
                        "1 67697C 26025E   26044.76506944 -.01077100  00000+0 -16076-2 0   447",
                        "2 67697  97.2812 154.8771 0001725  53.3991   1.7012 16.05927692    13"
                    ]
                },
                {
                    "noradId": "67694",
                    "tle": [
                        "1 67694C 26025B   26044.76298611 -.01086300  00000+0 -16411-2 0   448",
                        "2 67694  97.2815 154.8739 0001617  54.6241 346.1948 16.05736354    16"
                    ]
                },
                {
                    "noradId": "67696",
                    "tle": [
                        "1 67696C 26025D   26044.73729167 -.01091100  00000+0 -16628-2 0   446",
                        "2 67696  97.2816 154.8446 0001462  68.8959 181.2655 16.05595904    12"
                    ]
                },
                {
                    "noradId": "67695",
                    "tle": [
                        "1 67695C 26025C   26044.75395833 -.01102400  00000+0 -17019-2 0   447",
                        "2 67695  97.2817 154.8619 0001502  55.2958 289.0918 16.05391336    10"
                    ]
                },
                {
                    "noradId": "67693",
                    "tle": [
                        "1 67693C 26025A   26044.76298611 -.01113000  00000+0 -17434-2 0   441",
                        "2 67693  97.2819 154.8709 0001676  52.1907 341.8881 16.05159398    18"
                    ]
                }
            ]
        }
    ],
    "config": {}
}